[{"OBJECT_NAME":"STARLINK-3794","OBJECT_ID":"2022-052AK","EPOCH":"2026-03-09T17:01:15.466656","MEAN_MOTION":15.08834583,"ECCENTRICITY":0.00014502,"INCLINATION":53.2161,"RA_OF_ASC_NODE":269.0459,"ARG_OF_PERICENTER":93.9157,"MEAN_ANOMALY":266.2001,"EPHEMERIS_TYPE":0,"CLASSIFICATION_TYPE":"U","NORAD_CAT_ID":52631,"ELEMENT_SET_NO":999,"REV_AT_EPOCH":21100,"BSTAR":6.250363e-6,"MEAN_MOTION_DOT":-1.88e-6,"MEAN_MOTION_DDOT":0},{"OBJECT_NAME":"OBJECT E","OBJECT_ID":"2019-079E","EPOCH":"2026-03-09T23:32:16.414656","MEAN_MOTION":14.8535198,"ECCENTRICITY":0.01693653,"INCLINATION":97.6675,"RA_OF_ASC_NODE":77.1091,"ARG_OF_PERICENTER":315.2861,"MEAN_ANOMALY":43.4802,"EPHEMERIS_TYPE":0,"CLASSIFICATION_TYPE":"U","NORAD_CAT_ID":45915,"ELEMENT_SET_NO":999,"REV_AT_EPOCH":30492,"BSTAR":0.00041459103,"MEAN_MOTION_DOT":4.556e-5,"MEAN_MOTION_DDOT":0}]
